[{"OBJECT_NAME":"FENGYUN 1C DEB","OBJECT_ID":"1999-025CKW","EPOCH":"2026-02-23T21:06:16.487136","MEAN_MOTION":13.75920289,"ECCENTRICITY":0.02233565,"INCLINATION":99.0873,"RA_OF_ASC_NODE":85.4769,"ARG_OF_PERICENTER":36.717,"MEAN_ANOMALY":324.9051,"EPHEMERIS_TYPE":0,"CLASSIFICATION_TYPE":"U","NORAD_CAT_ID":31895,"ELEMENT_SET_NO":999,"REV_AT_EPOCH":62902,"BSTAR":0.0020092236,"MEAN_MOTION_DOT":2.297e-5,"MEAN_MOTION_DDOT":0},{"OBJECT_NAME":"FENGYUN 1C DEB","OBJECT_ID":"1999-025CKZ","EPOCH":"2026-02-15T20:48:10.966176","MEAN_MOTION":14.69381024,"ECCENTRICITY":0.01433438,"INCLINATION":98.7052,"RA_OF_ASC_NODE":280.8773,"ARG_OF_PERICENTER":16.818,"MEAN_ANOMALY":343.7704,"EPHEMERIS_TYPE":0,"CLASSIFICATION_TYPE":"U","NORAD_CAT_ID":31898,"ELEMENT_SET_NO":999,"REV_AT_EPOCH":66668,"BSTAR":0.00094596182,"MEAN_MOTION_DOT":6.49e-5,"MEAN_MOTION_DDOT":0},{"OBJECT_NAME":"FENGYUN 1C DEB","OBJECT_ID":"1999-025CLA","EPOCH":"2026-03-05T10:55:42.019680","MEAN_MOTION":13.83766563,"ECCENTRICITY":0.0178419,"INCLINATION":102.0747,"RA_OF_ASC_NODE":155.6489,"ARG_OF_PERICENTER":318.2646,"MEAN_ANOMALY":40.5002,"EPHEMERIS_TYPE":0,"CLASSIFICATION_TYPE":"U","NORAD_CAT_ID":31899,"ELEMENT_SET_NO":999,"REV_AT_EPOCH":68708,"BSTAR":0.0012555,"MEAN_MOTION_DOT":1.504e-5,"MEAN_MOTION_DDOT":0},{"OBJECT_NAME":"FENGYUN 1C DEB","OBJECT_ID":"1999-025CLC","EPOCH":"2026-03-06T02:35:43.416960","MEAN_MOTION":13.94199054,"ECCENTRICITY":0.01309362,"INCLINATION":98.6138,"RA_OF_ASC_NODE":25.6154,"ARG_OF_PERICENTER":319.5987,"MEAN_ANOMALY":39.5507,"EPHEMERIS_TYPE":0,"CLASSIFICATION_TYPE":"U","NORAD_CAT_ID":31901,"ELEMENT_SET_NO":999,"REV_AT_EPOCH":64569,"BSTAR":0.00029323271,"MEAN_MOTION_DOT":3.77e-6,"MEAN_MOTION_DDOT":0},{"OBJECT_NAME":"FENGYUN 1C DEB","OBJECT_ID":"1999-025CLD","EPOCH":"2026-03-05T04:17:34.080288","MEAN_MOTION":14.23461837,"ECCENTRICITY":0.01787135,"INCLINATION":98.5186,"RA_OF_ASC_NODE":46.4074,"ARG_OF_PERICENTER":269.1859,"MEAN_ANOMALY":151.0615,"EPHEMERIS_TYPE":0,"CLASSIFICATION_TYPE":"U","NORAD_CAT_ID":31902,"ELEMENT_SET_NO":999,"REV_AT_EPOCH":65964,"BSTAR":0.00035323374,"MEAN_MOTION_DOT":9.0e-6,"MEAN_MOTION_DDOT":0},{"OBJECT_NAME":"FENGYUN 1C DEB","OBJECT_ID":"1999-025CLE","EPOCH":"2026-03-06T05:29:58.805376","MEAN_MOTION":14.61208492,"ECCENTRICITY":0.01284259,"INCLINATION":99.2806,"RA_OF_ASC_NODE":68.6601,"ARG_OF_PERICENTER":142.4711,"MEAN_ANOMALY":218.5538,"EPHEMERIS_TYPE":0,"CLASSIFICATION_TYPE":"U","NORAD_CAT_ID":31903,"ELEMENT_SET_NO":999,"REV_AT_EPOCH":98614,"BSTAR":0.00060829245,"MEAN_MOTION_DOT":3.306e-5,"MEAN_MOTION_DDOT":0},{"OBJECT_NAME":"FENGYUN 1C DEB","OBJECT_ID":"1999-025CLG","EPOCH":"2026-03-06T09:59:57.334848","MEAN_MOTION":14.33603913,"ECCENTRICITY":0.01939134,"INCLINATION":99.1617,"RA_OF_ASC_NODE":51.4961,"ARG_OF_PERICENTER":210.5347,"MEAN_ANOMALY":148.4431,"EPHEMERIS_TYPE":0,"CLASSIFICATION_TYPE":"U","NORAD_CAT_ID":31905,"ELEMENT_SET_NO":999,"REV_AT_EPOCH":97823,"BSTAR":0.0005103492,"MEAN_MOTION_DOT":1.688e-5,"MEAN_MOTION_DDOT":0},{"OBJECT_NAME":"FENGYUN 1C DEB","OBJECT_ID":"1999-025CLH","EPOCH":"2026-03-04T07:38:23.523648","MEAN_MOTION":14.25575241,"ECCENTRICITY":0.00517217,"INCLINATION":98.6905,"RA_OF_ASC_NODE":200.6718,"ARG_OF_PERICENTER":239.8793,"MEAN_ANOMALY":183.7474,"EPHEMERIS_TYPE":0,"CLASSIFICATION_TYPE":"U","NORAD_CAT_ID":31906,"ELEMENT_SET_NO":999,"REV_AT_EPOCH":96291,"BSTAR":0.0033809201,"MEAN_MOTION_DOT":8.078e-5,"MEAN_MOTION_DDOT":0},{"OBJECT_NAME":"FENGYUN 1C DEB","OBJECT_ID":"1999-025CLQ","EPOCH":"2026-03-05T17:56:15.096480","MEAN_MOTION":13.92321964,"ECCENTRICITY":0.01929521,"INCLINATION":99.2923,"RA_OF_ASC_NODE":350.9475,"ARG_OF_PERICENTER":86.4812,"MEAN_ANOMALY":275.8394,"EPHEMERIS_TYPE":0,"CLASSIFICATION_TYPE":"U","NORAD_CAT_ID":31913,"ELEMENT_SET_NO":999,"REV_AT_EPOCH":57041,"BSTAR":0.0027390228,"MEAN_MOTION_DOT":4.054e-5,"MEAN_MOTION_DDOT":0},{"OBJECT_NAME":"FENGYUN 1C DEB","OBJECT_ID":"1999-025CLR","EPOCH":"2026-03-05T02:23:06.787104","MEAN_MOTION":14.55892809,"ECCENTRICITY":0.01816902,"INCLINATION":99.0188,"RA_OF_ASC_NODE":298.8217,"ARG_OF_PERICENTER":179.4946,"MEAN_ANOMALY":180.6466,"EPHEMERIS_TYPE":0,"CLASSIFICATION_TYPE":"U","NORAD_CAT_ID":31914,"ELEMENT_SET_NO":999,"REV_AT_EPOCH":69671,"BSTAR":0.00015027223,"MEAN_MOTION_DOT":7.6e-6,"MEAN_MOTION_DDOT":0},{"OBJECT_NAME":"FENGYUN 1C DEB","OBJECT_ID":"1999-025CLS","EPOCH":"2026-03-06T00:11:17.984256","MEAN_MOTION":14.16522685,"ECCENTRICITY":0.01014391,"INCLINATION":98.6276,"RA_OF_ASC_NODE":85.2979,"ARG_OF_PERICENTER":31.7507,"MEAN_ANOMALY":328.9731,"EPHEMERIS_TYPE":0,"CLASSIFICATION_TYPE":"U","NORAD_CAT_ID":31915,"ELEMENT_SET_NO":999,"REV_AT_EPOCH":65286,"BSTAR":0.00093712537,"MEAN_MOTION_DOT":1.92e-5,"MEAN_MOTION_DDOT":0},{"OBJECT_NAME":"FENGYUN 1C DEB","OBJECT_ID":"1999-025CLT","EPOCH":"2026-03-05T11:57:15.859008","MEAN_MOTION":14.33279524,"ECCENTRICITY":0.0145965,"INCLINATION":99.3225,"RA_OF_ASC_NODE":161.0033,"ARG_OF_PERICENTER":216.4253,"MEAN_ANOMALY":142.6929,"EPHEMERIS_TYPE":0,"CLASSIFICATION_TYPE":"U","NORAD_CAT_ID":31916,"ELEMENT_SET_NO":999,"REV_AT_EPOCH":65712,"BSTAR":0.0023999,"MEAN_MOTION_DOT":7.391e-5,"MEAN_MOTION_DDOT":0},{"OBJECT_NAME":"FENGYUN 1C DEB","OBJECT_ID":"1999-025CLU","EPOCH":"2026-03-06T20:26:37.082112","MEAN_MOTION":14.37957605,"ECCENTRICITY":0.0190304,"INCLINATION":98.3682,"RA_OF_ASC_NODE":61.4287,"ARG_OF_PERICENTER":41.3487,"MEAN_ANOMALY":73.8975,"EPHEMERIS_TYPE":0,"CLASSIFICATION_TYPE":"U","NORAD_CAT_ID":31917,"ELEMENT_SET_NO":999,"REV_AT_EPOCH":97630,"BSTAR":0.00096133,"MEAN_MOTION_DOT":3.537e-5,"MEAN_MOTION_DDOT":0},{"OBJECT_NAME":"FENGYUN 1C DEB","OBJECT_ID":"1999-025CLW","EPOCH":"2026-02-26T15:36:55.154304","MEAN_MOTION":14.46029411,"ECCENTRICITY":0.01012464,"INCLINATION":99.1107,"RA_OF_ASC_NODE":210.6228,"ARG_OF_PERICENTER":342.1352,"MEAN_ANOMALY":78.0869,"EPHEMERIS_TYPE":0,"CLASSIFICATION_TYPE":"U","NORAD_CAT_ID":31919,"ELEMENT_SET_NO":999,"REV_AT_EPOCH":98178,"BSTAR":0.00026825709,"MEAN_MOTION_DOT":9.63e-6,"MEAN_MOTION_DDOT":0},{"OBJECT_NAME":"FENGYUN 1C DEB","OBJECT_ID":"1999-025CLY","EPOCH":"2026-03-06T03:48:23.951520","MEAN_MOTION":13.75499655,"ECCENTRICITY":0.02034591,"INCLINATION":99.3363,"RA_OF_ASC_NODE":320.8382,"ARG_OF_PERICENTER":44.8363,"MEAN_ANOMALY":316.9026,"EPHEMERIS_TYPE":0,"CLASSIFICATION_TYPE":"U","NORAD_CAT_ID":31921,"ELEMENT_SET_NO":999,"REV_AT_EPOCH":93453,"BSTAR":0.001824826,"MEAN_MOTION_DOT":2.0e-5,"MEAN_MOTION_DDOT":0},{"OBJECT_NAME":"FENGYUN 1C DEB","OBJECT_ID":"1999-025CLZ","EPOCH":"2026-03-06T05:48:41.384160","MEAN_MOTION":13.86987385,"ECCENTRICITY":0.01613891,"INCLINATION":98.8138,"RA_OF_ASC_NODE":56.857,"ARG_OF_PERICENTER":158.9566,"MEAN_ANOMALY":324.1657,"EPHEMERIS_TYPE":0,"CLASSIFICATION_TYPE":"U","NORAD_CAT_ID":31922,"ELEMENT_SET_NO":999,"REV_AT_EPOCH":94174,"BSTAR":0.0014230214,"MEAN_MOTION_DOT":1.806e-5,"MEAN_MOTION_DDOT":0}]
