FENGYUN 1C DEB          
1 31895U 99025CKW 26054.87935749  .00002297  00000+0  20092-2 0  9994
2 31895  99.0873  85.4769 0223356  36.7170 324.9051 13.75920289629027
FENGYUN 1C DEB          
1 31898U 99025CKZ 26046.86679359  .00006490  00000+0  94596-3 0  9999
2 31898  98.7052 280.8773 0143343  16.8180 343.7704 14.69381024666687
FENGYUN 1C DEB          
1 31899U 99025CLA 26064.45534745  .00001504  00000+0  12555-2 0  9999
2 31899 102.0747 155.6489 0178419 318.2646  40.5002 13.83766563687089
FENGYUN 1C DEB          
1 31901U 99025CLC 26065.10814140  .00000377  00000+0  29323-3 0  9995
2 31901  98.6138  25.6154 0130936 319.5987  39.5507 13.94199054645692
FENGYUN 1C DEB          
1 31902U 99025CLD 26064.17886667  .00000900  00000+0  35323-3 0  9994
2 31902  98.5186  46.4074 0178713 269.1859 151.0615 14.23461837659644
FENGYUN 1C DEB          
1 31903U 99025CLE 26065.22915284  .00003306  00000+0  60829-3 0  9992
2 31903  99.2806  68.6601 0128425 142.4711 218.5538 14.61208492986148
FENGYUN 1C DEB          
1 31905U 99025CLG 26065.41663582  .00001688  00000+0  51035-3 0  9996
2 31905  99.1617  51.4961 0193913 210.5347 148.4431 14.33603913978234
FENGYUN 1C DEB          
1 31906U 99025CLH 26063.31832782  .00008078  00000+0  33809-2 0  9992
2 31906  98.6905 200.6718 0051721 239.8793 183.7474 14.25575241962916
FENGYUN 1C DEB          
1 31913U 99025CLQ 26064.74739695  .00004054  00000+0  27390-2 0  9995
2 31913  99.2923 350.9475 0192952  86.4812 275.8394 13.92321964570418
FENGYUN 1C DEB          
1 31914U 99025CLR 26064.09938411  .00000760  00000+0  15027-3 0  9996
2 31914  99.0188 298.8217 0181690 179.4946 180.6466 14.55892809696718
FENGYUN 1C DEB          
1 31915U 99025CLS 26065.00784704  .00001920  00000+0  93713-3 0  9990
2 31915  98.6276  85.2979 0101439  31.7507 328.9731 14.16522685652860
FENGYUN 1C DEB          
1 31916U 99025CLT 26064.49810022  .00007391  00000+0  23999-2 0  9992
2 31916  99.3225 161.0033 0145965 216.4253 142.6929 14.33279524657123
FENGYUN 1C DEB          
1 31917U 99025CLU 26065.85181808  .00003537  00000+0  96133-3 0  9996
2 31917  98.3682  61.4287 0190304  41.3487  73.8975 14.37957605976302
FENGYUN 1C DEB          
1 31919U 99025CLW 26057.65063836  .00000963  00000+0  26826-3 0  9999
2 31919  99.1107 210.6228 0101246 342.1352  78.0869 14.46029411981780
FENGYUN 1C DEB          
1 31921U 99025CLY 26065.15861055  .00002000  00000+0  18248-2 0  9997
2 31921  99.3363 320.8382 0203459  44.8363 316.9026 13.75499655934533
FENGYUN 1C DEB          
1 31922U 99025CLZ 26065.24214565  .00001806  00000+0  14230-2 0  9996
2 31922  98.8138  56.8570 0161389 158.9566 324.1657 13.86987385941746
